[{"OBJECT_NAME":"QIANFAN-29","OBJECT_ID":"2024-185L","EPOCH":"2026-03-09T23:36:34.988256","MEAN_MOTION":13.5104544,"ECCENTRICITY":0.00107498,"INCLINATION":88.9721,"RA_OF_ASC_NODE":72.2764,"ARG_OF_PERICENTER":148.0314,"MEAN_ANOMALY":212.1491,"EPHEMERIS_TYPE":0,"CLASSIFICATION_TYPE":"U","NORAD_CAT_ID":61562,"ELEMENT_SET_NO":999,"REV_AT_EPOCH":7957,"BSTAR":0.00028956745,"MEAN_MOTION_DOT":1.99e-6,"MEAN_MOTION_DDOT":0},{"OBJECT_NAME":"DELTA 1 DEB","OBJECT_ID":"1975-052KZ","EPOCH":"2026-03-05T06:11:47.679936","MEAN_MOTION":12.6548108,"ECCENTRICITY":0.0438539,"INCLINATION":99.2018,"RA_OF_ASC_NODE":349.6967,"ARG_OF_PERICENTER":111.5687,"MEAN_ANOMALY":39.0014,"EPHEMERIS_TYPE":0,"CLASSIFICATION_TYPE":"U","NORAD_CAT_ID":26845,"ELEMENT_SET_NO":999,"REV_AT_EPOCH":44525,"BSTAR":0.0013623,"MEAN_MOTION_DOT":3.42e-6,"MEAN_MOTION_DDOT":0}]
